{
    "links": {
        "self": "http://www.neowsapp.com/rest/v1/neo/3879305?api_key=iIulBulltgU6a56xZRHN4H3l9WmuAYTsLGpBGhQ2"
    },
    "id": "3879305",
    "neo_reference_id": "3879305",
    "name": "(2019 UD3)",
    "designation": "2019 UD3",
    "nasa_jpl_url": "http://ssd.jpl.nasa.gov/sbdb.cgi?sstr=3879305",
    "absolute_magnitude_h": 25.8,
    "estimated_diameter": {
        "kilometers": {
            "estimated_diameter_min": 0.0183888672,
            "estimated_diameter_max": 0.0411187571
        },
        "meters": {
            "estimated_diameter_min": 18.388867207,
            "estimated_diameter_max": 41.1187571041
        },
        "miles": {
            "estimated_diameter_min": 0.0114263088,
            "estimated_diameter_max": 0.0255500032
        },
        "feet": {
            "estimated_diameter_min": 60.3309310875,
            "estimated_diameter_max": 134.9040630575
        }
    },
    "is_potentially_hazardous_asteroid": false,
    "close_approach_data": [
        {
            "close_approach_date": "2019-10-24",
            "close_approach_date_full": "2019-Oct-24 15:33",
            "epoch_date_close_approach": 1571931180000,
            "relative_velocity": {
                "kilometers_per_second": "12.0517744972",
                "kilometers_per_hour": "43386.3881899438",
                "miles_per_hour": "26958.6143728014"
            },
            "miss_distance": {
                "astronomical": "0.0101291953",
                "lunar": "3.9402569717",
                "kilometers": "1515306.041694011",
                "miles": "941567.5132429118"
            },
            "orbiting_body": "Earth"
        },
        {
            "close_approach_date": "2019-10-24",
            "close_approach_date_full": "2019-Oct-24 21:17",
            "epoch_date_close_approach": 1571951820000,
            "relative_velocity": {
                "kilometers_per_second": "11.7965106727",
                "kilometers_per_hour": "42467.4384217042",
                "miles_per_hour": "26387.6147237528"
            },
            "miss_distance": {
                "astronomical": "0.0088268494",
                "lunar": "3.4336444166",
                "kilometers": "1320477.869050778",
                "miles": "820506.9004176164"
            },
            "orbiting_body": "Moon"
        }
    ],
    "orbital_data": {
        "orbit_id": "4",
        "orbit_determination_date": "2019-11-06 05:01:10",
        "first_observation_date": "2019-10-21",
        "last_observation_date": "2019-10-23",
        "data_arc_in_days": 2,
        "observations_used": 51,
        "orbit_uncertainty": "7",
        "minimum_orbit_intersection": ".00638927",
        "jupiter_tisserand_invariant": "3.635",
        "epoch_osculation": "2459000.5",
        "eccentricity": ".5566853102392911",
        "semi_major_axis": "1.988813164612144",
        "inclination": "7.212627518996512",
        "ascending_node_longitude": "214.3963548670435",
        "orbital_period": "1024.446789929756",
        "perihelion_distance": ".8816700910620461",
        "perihelion_argument": "223.6106148036549",
        "aphelion_distance": "3.095956238162241",
        "perihelion_time": "2458815.504304107437",
        "mean_anomaly": "65.00918464090182",
        "mean_motion": ".3514091737499461",
        "equinox": "J2000",
        "orbit_class": {
            "orbit_class_type": "APO",
            "orbit_class_description": "Near-Earth asteroid orbits which cross the Earth’s orbit similar to that of 1862 Apollo",
            "orbit_class_range": "a (semi-major axis) > 1.0 AU; q (perihelion) < 1.017 AU"
        }
    },
    "is_sentry_object": false
}